{"type": "FeatureCollection", "crs": {"type": "name", "properties": {"name": "EPSG:4326"}}, "features": [{"type": "Feature", "id": 34, "geometry": {"type": "MultiPolygon", "coordinates": [[[[72.73685380071157, 19.465849870993967], [72.72884586073947, 19.46570100108285], [72.73284903481819, 19.459169408366815], [72.73685380071157, 19.465849870993967]]], [[[72.96345544809824, 20.332178592595483], [72.95265751063523, 20.314489838098623], [72.97154080577988, 20.297102878711], [72.98290113532313, 20.32301406451874], [72.97855634990817, 20.331941987026493], [72.96345544809824, 20.332178592595483]]], [[[74.38930188405402, 22.03233702605432], [74.39808101512116, 22.02282650045787], [74.38476455553769, 22.018030082006533], [74.37562149898267, 22.000442097406342], [74.35355327191395, 21.980167280155168], [74.30745579820623, 21.97160589947719], [74.28099466836265, 21.93296055507582], [74.19289645995266, 21.925817706517332], [74.15724752846978, 21.950669127909894], [74.12826016896062, 21.9497083899808], [74.0492819573523, 21.925860755107127], [73.92957391426806, 21.864432791930135], [73.887504684822, 21.85453757239626], [73.87279463370399, 21.84174468043547], [73.8166627761517, 21.84079427148019], [73.79565065973497, 21.824559993053878], [73.80794679125917, 21.809845335165722], [73.82696585957248, 21.81014570559507], [73.83236047911052, 21.801486047337903], [73.82734897936305, 21.792728506776637], [73.8377166309915, 21.789307086624735], [73.82885973187189, 21.78600822473925], [73.83428780646776, 21.77490086115535], [73.82407719292742, 21.760976788075766], [73.86648054445519, 21.718903157552017], [73.88104149769391, 21.714622386184658], [73.89168055462419, 21.691708422256287], [73.89436020755716, 21.675901490291945], [73.88796121044602, 21.653151282631512], [73.85968925934768, 21.641982699431406], [73.85196510975021, 21.646100104481846], [73.83863476131415, 21.633001508529677], [73.83042581611068, 21.642291694625957], [73.81431004799842, 21.644094613906066], [73.78018821387096, 21.62815462825627], [73.7814113473854, 21.61851751262879], [73.79766510031858, 21.60464633718254], [73.81394999874097, 21.600706424918542], [73.83476556646848, 21.520207530138748], [73.85198430495119, 21.497825539987065], [73.86938958309426, 21.500952316233718], [73.87268382561537, 21.50633040502944], [73.86447621710504, 21.512219308703664], [73.87670031452325, 21.51168243541457], [73.87797418847819, 21.504271801425574], [73.8925434870659, 21.50911216174768], [73.90536225213421, 21.515686439636205], [73.90523612687166, 21.524556964408486], [73.91568598602672, 21.51912933116494], [73.92599191980187, 21.525250284021123], [73.93190412075886, 21.51198064928912], [73.94556343764187, 21.51648699775734], [73.95180119434603, 21.512619261480154], [73.95699064675803, 21.54080482494859], [73.96615948316509, 21.52153519655375], [73.9823274928027, 21.52182386844111], [73.97400697953587, 21.542633126259382], [73.99817633191817, 21.538686692993227], [74.00522172436843, 21.553386358223506], [74.0299549573394, 21.545414908950995], [74.03787016871631, 21.550681225785798], [74.04316309447263, 21.54227497672981], [74.05409309236725, 21.547711326800126], [74.05451895938893, 21.558584654049387], [74.05994724778385, 21.55023424033563], [74.072233543654, 21.54782755619954], [74.08183848518203, 21.548544805372334], [74.07925421626426, 21.55406472846037], [74.09688425468804, 21.550725570831577], [74.10299458267417, 21.55611180684619], [74.10988318317474, 21.555867827332435], [74.11306218262467, 21.548358567493448], [74.11897939079108, 21.556214319208724], [74.13665391648264, 21.546343325807573], [74.13915413273423, 21.555323701267284], [74.15400137815573, 21.55675004951806], [74.15771974317025, 21.568696465257762], [74.1758163270267, 21.568692658280778], [74.18264448887494, 21.542241033561826], [74.19313541451318, 21.53945105481662], [74.19533874924147, 21.531941740142273], [74.22898414928156, 21.554097745638234], [74.23634608647836, 21.548290795956458], [74.23596952349106, 21.539335981003237], [74.26337465334082, 21.539831355001276], [74.26841958029836, 21.552537409664325], [74.27787021012519, 21.55329102165793], [74.27610212083016, 21.561924335031264], [74.29491585313413, 21.56901679899728], [74.30288957807372, 21.56663078084344], [74.30307061195968, 21.552063611774003], [74.32195224611935, 21.548479456957743], [74.33013660982338, 21.552905661843475], [74.33170849987384, 21.54394860161596], [74.32638871628713, 21.542330446548856], [74.33058253442873, 21.53525781351507], [74.32076522667596, 21.52904555489168], [74.32064057914208, 21.49843300242228], [74.30393411303496, 21.499378650593343], [74.30399711368246, 21.487948831727543], [74.25578108824295, 21.47661609688897], [74.25342143048555, 21.467576950244634], [74.23562355891893, 21.467484678158723], [74.2343943069791, 21.48221898228708], [74.21420003925492, 21.481613833686296], [74.20914123961447, 21.46206071002264], [74.18769827322116, 21.458097528536456], [74.18228502981061, 21.469118340385887], [74.16098477517326, 21.46877625214708], [74.13588470168129, 21.456064693283146], [74.13377773282679, 21.465793111821196], [74.12522193910895, 21.46658273203604], [74.11693270068878, 21.46188794428116], [74.11631588687196, 21.452273401233864], [74.1007077172009, 21.447636949462662], [74.09463425158242, 21.455663390361195], [74.07234627054406, 21.456955399360773], [74.07281170026918, 21.46870290341117], [74.06309344704782, 21.4745703988482], [74.06126082368108, 21.461821113928575], [74.0455712405941, 21.44600810331539], [74.04951053547299, 21.440139291681245], [74.04467272768063, 21.4191228221404], [74.00266622489593, 21.42133947949506], [73.98226878161067, 21.407833567232053], [73.97672861972522, 21.411747774489164], [73.9702575714401, 21.39763353986554], [73.95929767940945, 21.39533595003623], [73.93874618134116, 21.404840248528117], [73.94388768886985, 21.399788989701793], [73.94898780652179, 21.350984780908593], [73.94198602727857, 21.299084561769558], [73.87942578512894, 21.26577131146178], [73.8497585931892, 21.274638430469697], [73.82268567290788, 21.2706689064637], [73.828285094856, 21.239789793807233], [73.81162978870263, 21.231034067276983], [73.81055448644291, 21.207423546635273], [73.81525619228319, 21.19715702341706], [73.82587121388976, 21.19993503914964], [73.82572126350927, 21.186959353158095], [73.81969412670492, 21.186537217422757], [73.81568687517314, 21.173883008836935], [73.78475062514666, 21.18390971166485], [73.78116748353185, 21.17090565297697], [73.77214973567077, 21.164560841193417], [73.7401388436463, 21.17103658066059], [73.72832219419323, 21.16174790402223], [73.73692882177635, 21.153058711113314], [73.73301692731027, 21.142164097270015], [73.71877833540957, 21.13956707014782], [73.70113867333416, 21.146125083997752], [73.7015906867205, 21.153558825294965], [73.66754697368341, 21.154549651233676], [73.66472944193075, 21.14711666846769], [73.63442271778067, 21.140698349146973], [73.62720760123389, 21.143168697326274], [73.62904882147788, 21.15473982758916], [73.60756940414531, 21.15880071781152], [73.60650309851316, 21.17867344636454], [73.59965407419078, 21.181614085208547], [73.57718906575266, 21.170580222664967], [73.58305475913073, 21.160840766499195], [73.57665558774643, 21.156496612230995], [73.57829372495586, 21.150304829060012], [73.59856548225476, 21.156453833321727], [73.60490231684655, 21.143838298723402], [73.6174118970654, 21.14251706386729], [73.6116869337597, 21.137900581643734], [73.61823889509913, 21.11827375309128], [73.64616227201944, 21.1210650732884], [73.65168060843673, 21.1074089185724], [73.67698853861073, 21.108369135230795], [73.68874073034893, 21.100603117217563], [73.70290705278501, 21.11820582699261], [73.705286539954, 21.10823522572889], [73.72948039298734, 21.099675593599944], [73.74356566043535, 21.114985151990798], [73.72973581995522, 21.082238481812706], [73.78014597328968, 21.064328050337675], [73.80758399854682, 21.08462894068041], [73.81073093892091, 21.059289180883475], [73.79534941060277, 21.044316721260422], [73.7999488989435, 21.03856101620583], [73.86885718935461, 20.985106985815474], [73.90113548199136, 20.982149278752022], [73.90781759214745, 20.95958249155635], [73.89214945004966, 20.95555339591101], [73.88804307122292, 20.933436810927294], [73.91738216338659, 20.907626150128134], [73.92557117407561, 20.888347439193485], [73.92356932877061, 20.851219676057276], [73.92919463208035, 20.842199119658044], [73.94130362656458, 20.84017542346384], [73.94412019532325, 20.823741862278435], [73.9320094581074, 20.808870273385786], [73.9362031379084, 20.80087193704291], [73.93191761704769, 20.76054931269159], [73.94136432662664, 20.75825315796232], [73.94158254447711, 20.741332310857942], [73.91719369953493, 20.72489279965744], [73.89580444880237, 20.73191654496923], [73.87428570322662, 20.729568879750744], [73.8552149584283, 20.692207947952525], [73.83546856285699, 20.70209556514879], [73.81206128816115, 20.6921959878511], [73.81732078670744, 20.67178065436147], [73.83068202191791, 20.675027350029715], [73.83908585662229, 20.65878137290187], [73.83273318563033, 20.648734326766238], [73.8383569555159, 20.620546915945358], [73.80712181712978, 20.60830943473915], [73.79845940596417, 20.598602826107435], [73.79132714642596, 20.605196599612828], [73.77641644670776, 20.60081473097097], [73.76051816521733, 20.57331094219396], [73.74465241172338, 20.56477050858162], [73.73238779579428, 20.574344556850388], [73.69542783873125, 20.578469033511617], [73.66960111081943, 20.56319736423866], [73.6523895777236, 20.564480711486148], [73.62757196240474, 20.583873485619062], [73.62233961004803, 20.614159693220692], [73.59957363544699, 20.636822127381755], [73.5693659469637, 20.65149342082867], [73.55093706280891, 20.648451843733646], [73.5329930083961, 20.673029601604416], [73.52065576187968, 20.6787291541854], [73.51798572541185, 20.667563849869776], [73.50439307609932, 20.670800369163594], [73.49568374682471, 20.653527042668035], [73.48929291000961, 20.655653388254127], [73.47861845496556, 20.676581745423015], [73.48632632080187, 20.675081901045736], [73.49032855344615, 20.68630284495918], [73.47470811009333, 20.720303256407487], [73.44958930762603, 20.717550110004144], [73.44088402705839, 20.69966131283719], [73.44839158116277, 20.692214755764205], [73.44420646500133, 20.681151693175718], [73.43219389657804, 20.67728124055587], [73.43369662263986, 20.6680222958172], [73.39576067925827, 20.652598999804024], [73.39203804904275, 20.64597471524699], [73.40694366249983, 20.635420540329086], [73.40726849869644, 20.623887233977825], [73.42021996828838, 20.627236777154188], [73.43100436724177, 20.59413804100042], [73.44920357194134, 20.594159132676506], [73.47327455161351, 20.58463174785935], [73.47914770550003, 20.5605297128608], [73.47533409391256, 20.543510069939284], [73.49385174688878, 20.538177262691182], [73.46970030691325, 20.51982860340798], [73.46772911032913, 20.496381566310152], [73.43106864170032, 20.454313897516304], [73.4196420515234, 20.41296386247838], [73.4140831669508, 20.41612730227514], [73.39598696847158, 20.39623129535624], [73.3798411310518, 20.393403899615986], [73.38480110523122, 20.371188631017922], [73.40618120213104, 20.38436933745393], [73.41346721282174, 20.35663506111532], [73.40926780087088, 20.349121313409203], [73.41853277408134, 20.330427471669672], [73.41387288481751, 20.325630420126434], [73.42776011776283, 20.280033271119656], [73.41290966086422, 20.270857782029726], [73.41284352060478, 20.24437407076357], [73.4176761603893, 20.24279173155926], [73.4107726029393, 20.238497065326264], [73.42148213180529, 20.20645875046048], [73.41679461485494, 20.19831337870153], [73.39458459410852, 20.198811097964033], [73.38879569231415, 20.192775356859286], [73.38316955177453, 20.211617772496375], [73.36606626477212, 20.203578376517083], [73.36544754742525, 20.195467042115588], [73.35322335568395, 20.20138227213758], [73.36140112126223, 20.207248790136344], [73.35690283532477, 20.21290152341345], [73.3466456944426, 20.20959637335041], [73.34344513273086, 20.199470265290888], [73.29766856329377, 20.20846182270534], [73.28324057419182, 20.198103695654464], [73.27917550439341, 20.150015604945217], [73.25398741846149, 20.137756598576576], [73.25327229122337, 20.1256496685749], [73.22702761673573, 20.122726963618565], [73.22702228792943, 20.137898651379167], [73.21791234507242, 20.1364082506165], [73.2106581122849, 20.120451386782353], [73.2150932466579, 20.119154293263016], [73.21315384234998, 20.09103286835736], [73.20433503539171, 20.078717157276635], [73.18929291843567, 20.07734591739746], [73.18748804851963, 20.05875081975323], [73.19303549753865, 20.050739934595303], [73.17887755458752, 20.047146503428984], [73.15721991509584, 20.06279045050729], [73.15456390941439, 20.075678393780244], [73.13782776925851, 20.078673416432725], [73.13715059943438, 20.08597017004738], [73.11202786773602, 20.074188979057837], [73.10371219099868, 20.089530848493197], [73.06429430048615, 20.098514077299093], [73.05401257990117, 20.094946120063636], [73.0526971561694, 20.06446101129011], [73.03961630851526, 20.06708978826351], [73.00130682318067, 20.11167468657601], [72.99990961413046, 20.122469490232493], [73.01261023097595, 20.129552818147786], [73.01146013947728, 20.134606660107472], [72.99819388134513, 20.142788619478583], [72.99249566358041, 20.11766868289225], [72.97710738891445, 20.112686394571604], [72.96148405837634, 20.131217141517087], [72.97756909691935, 20.179392552142797], [72.96172837318417, 20.184252949460976], [72.96265793187386, 20.209681051219334], [72.89940670560769, 20.22760217324953], [72.8896046620282, 20.219998563960264], [72.87049414521897, 20.22808482622534], [72.8587285290572, 20.224503405019195], [72.86117673015889, 20.207371237547527], [72.83902389796008, 20.208886889745262], [72.8308824018614, 20.196527122819063], [72.83694482089682, 20.188216819527707], [72.81602880984245, 20.18420408987881], [72.81631480378452, 20.156443199214895], [72.82236197212137, 20.154742223766807], [72.8244112781178, 20.142094214157858], [72.80592784376736, 20.154344826464992], [72.78900859821044, 20.149088663789268], [72.78501877938504, 20.145262030988093], [72.79407408670652, 20.12271981512372], [72.77522364834171, 20.131931121439248], [72.7374841683094, 20.134820880059856], [72.73501776015351, 20.092309747540032], [72.73019422030282, 20.09392084985813], [72.72772388022098, 20.08148039156511], [72.71191596116329, 20.07980301519517], [72.7082100683582, 20.07170424551248], [72.72239594262645, 19.994613288668848], [72.71647127664657, 19.973070526574215], [72.72198153361622, 19.97120844345531], [72.7255971358538, 19.988370253133777], [72.7318031326211, 19.977868217911933], [72.72481863426903, 19.975767063956408], [72.73255456706804, 19.97179376390361], [72.73528841356547, 19.98617872257946], [72.74008748420616, 19.988500264499915], [72.74165648078308, 19.969486941154152], [72.7459359541853, 19.98060839071897], [72.76575985011112, 19.982164742958805], [72.7624646481893, 19.977325247931933], [72.7683797713659, 19.977911130739653], [72.7676908192385, 19.968574407425596], [72.77259910345818, 19.967660916874873], [72.76855460597805, 19.964374205641814], [72.77659958259103, 19.961224973640405], [72.75343540638411, 19.96154260689732], [72.7562756080213, 19.95648447450746], [72.74694873010799, 19.951943240115586], [72.75812059130801, 19.9481364866568], [72.77053959978664, 19.95398095100196], [72.76815274283909, 19.945480801767236], [72.7746457711026, 19.9438045670579], [72.76192203431663, 19.936136458101302], [72.76746210277727, 19.932961244975925], [72.76565755355982, 19.919622125302354], [72.77426700724281, 19.915105115699156], [72.7682892876606, 19.911145991159252], [72.77515440799624, 19.90033904632661], [72.76590328590916, 19.901401808279463], [72.75856201625209, 19.881901259760983], [72.75053862525711, 19.91668531296806], [72.7438043643055, 19.902080423847245], [72.74007299438061, 19.910903234907643], [72.73420573613728, 19.90999673107393], [72.73899809276952, 19.92382053051055], [72.72934073184969, 19.921206572028705], [72.72834920467676, 19.93540935389305], [72.72206602196532, 19.935442353027153], [72.72485290679376, 19.941714185527264], [72.71830301427444, 19.945530625793307], [72.72595829003905, 19.95414849328619], [72.71097244894231, 19.96041683092348], [72.72043506229501, 19.96825916253043], [72.7054553818445, 19.966588373315275], [72.69794323375577, 19.959587709402367], [72.70215634950628, 19.96057639400783], [72.70356066333207, 19.95842726344923], [72.68996142397864, 19.958630179778595], [72.68584398689073, 19.94150537681029], [72.66372599315527, 19.934216227381594], [72.67603950079197, 19.920574061416016], [72.6781702327807, 19.900925225765214], [72.68204522355659, 19.908947908299325], [72.68492744119621, 19.910755129559213], [72.68589509653879, 19.909667986177507], [72.68024170829999, 19.898248453218372], [72.68066972319352, 19.86607928070922], [72.6880516991094, 19.875130595689612], [72.69545940008003, 19.865135021130317], [72.69749615751023, 19.87729544575861], [72.70335783721565, 19.877004767137674], [72.6987532114098, 19.856496955568748], [72.68525510169611, 19.860010017636608], [72.68401143538922, 19.868026957691406], [72.67208418086678, 19.85465903791245], [72.68271461666527, 19.852354607497656], [72.67116080168792, 19.85091744744393], [72.66915729988953, 19.8444316871873], [72.65833369486388, 19.847846476261772], [72.65471198228573, 19.83534313834102], [72.66747121240688, 19.820806245698186], [72.67582759899625, 19.81799830576938], [72.68025928024528, 19.824260806740124], [72.67595794813724, 19.815355522407906], [72.69130217121828, 19.795545204943604], [72.68520456337653, 19.75783283407462], [72.69130906399144, 19.73864282808875], [72.70408042406386, 19.736020743765938], [72.7042229831062, 19.727106253221514], [72.69465330404634, 19.726981255772756], [72.71354025623249, 19.694969252364242], [72.71545507544772, 19.684117447050678], [72.71039995710332, 19.69173215532015], [72.7068091339945, 19.67992139024143], [72.71407591624651, 19.6692630809866], [72.71152484187513, 19.655288539567277], [72.71844398599364, 19.634640195035697], [72.72379211771576, 19.63289148914839], [72.71600693567957, 19.646227448060923], [72.73510655143282, 19.62989474477796], [72.73179200608799, 19.64836798926023], [72.74231384814506, 19.65048485793636], [72.75382604507362, 19.626546136307002], [72.74506198683864, 19.618343779177337], [72.73906360780151, 19.626432615919594], [72.72553295122675, 19.628714624720686], [72.7294434218631, 19.601625299139936], [72.73943424190796, 19.598798998257347], [72.75076900090664, 19.616728200944458], [72.7585368238983, 19.608418965344647], [72.75735382890737, 19.617346648225368], [72.76659402837888, 19.61564202553952], [72.7624697865527, 19.622207235539143], [72.77122366238393, 19.622522718032787], [72.77250501750858, 19.63566265343391], [72.77295668594185, 19.627383175030552], [72.77878211952387, 19.62702245738326], [72.77414445278356, 19.62110124301186], [72.78003927493306, 19.617362699286602], [72.77233111355105, 19.60826104955445], [72.7857764948525, 19.607852348759444], [72.78214583595242, 19.601702872029218], [72.78906432789404, 19.59722678422171], [72.77175746917352, 19.599531452538383], [72.76772215247563, 19.586446303903458], [72.75999186199488, 19.60052212865212], [72.7422729792912, 19.58950767983724], [72.73902010329061, 19.59450844140981], [72.74709649309075, 19.598436824359723], [72.71610895105819, 19.592691532131436], [72.71627385389657, 19.572893935537532], [72.72669352606482, 19.56682516718837], [72.72372743003214, 19.56074807894308], [72.72024824146202, 19.5652323906081], [72.72395582399818, 19.545265781066572], [72.7187314711391, 19.53968728987554], [72.72351670413111, 19.54083807343062], [72.73243313101132, 19.52685190049229], [72.73869038295378, 19.529082568026244], [72.73739822558785, 19.522200336629172], [72.746184704874, 19.51422008819466], [72.76780594193542, 19.507549709987266], [72.77277043733568, 19.487553911150066], [72.74423945073693, 19.461605848486045], [72.76073292179863, 19.418385060411367], [72.7623525141873, 19.396884577104824], [72.76913294315463, 19.39651659673697], [72.76863049475496, 19.406386229138825], [72.77456581205914, 19.411603815947924], [72.771229366686, 19.415481518377316], [72.77087936239003, 19.416808101670693], [72.771381082256, 19.417776982180726], [72.77489697598865, 19.412944024065272], [72.77434347812803, 19.409917184022024], [72.7696518675549, 19.406335932163188], [72.76972309946534, 19.39512677728146], [72.75854573518589, 19.383658645439198], [72.75797731451179, 19.37518932023341], [72.77519255585311, 19.357260408314797], [72.77471418769294, 19.363052825183306], [72.76802655649114, 19.372534586283372], [72.76878020887851, 19.374739728720854], [72.76844422279258, 19.372200518621348], [72.77475699511118, 19.363863076413143], [72.77920994217793, 19.351520323636564], [72.79999732256847, 19.32992005478903], [72.7946029500671, 19.3074445845621], [72.78404131982946, 19.301827804370415], [72.77963828226157, 19.277812850956575], [72.78543282996752, 19.26477972050642], [72.77600742034225, 19.22262833396311], [72.7800054165317, 19.206739086758365], [72.78626795056802, 19.203749740403975], [72.78244127927294, 19.19289789745113], [72.79660205910375, 19.194528765737108], [72.79513841065514, 19.17229319672644], [72.78191134242559, 19.16680984942129], [72.78164018146552, 19.15842940591479], [72.7892465197084, 19.15037617323898], [72.78663332863175, 19.129554885229087], [72.79638321063594, 19.133006351165154], [72.79460774347744, 19.141103438555835], [72.80218734965413, 19.141763582449155], [72.8226872260346, 19.11277873878167], [72.82697021454455, 19.08999599292365], [72.81814754303392, 19.041612692088762], [72.83815066902856, 19.048505557744335], [72.83214687943848, 19.023183879851654], [72.8224875754627, 19.01758877404722], [72.81520982208612, 19.02623526802062], [72.80941518993856, 18.994770477277772], [72.81471069475809, 18.98327699642505], [72.80239413105275, 18.97214235259006], [72.79258271175665, 18.93957026024274], [72.80835068183534, 18.955277815862303], [72.82341957667168, 18.941430120021472], [72.81792442128028, 18.925422910693065], [72.82556820130422, 18.91992794811391], [72.81211552927589, 18.911743625334648], [72.80848806119171, 18.914673389220784], [72.81440153236652, 18.92149056780291], [72.80547784709881, 18.911305167786946], [72.80358829389928, 18.902985507397098], [72.868382638974, 18.79963494309449], [72.86501852998163, 18.72293551531849], [72.85566875401173, 18.699327403173132], [72.86592935071285, 18.669951318808057], [72.86551360590776, 18.651928367700364], [72.87127526988438, 18.640364046881515], [72.88360573501875, 18.63803615230369], [72.92371876705096, 18.545712748691663], [72.93371729553927, 18.540489636637425], [72.91384478548522, 18.53068810794944], [72.90580956008465, 18.54044425337201], [72.9114986680341, 18.507526049337205], [72.89591135634561, 18.472172210104933], [72.89504384159763, 18.45746452033902], [72.90710740917622, 18.43478983769872], [72.90639143213185, 18.4033810125303], [72.92616304700644, 18.386816019137278], [72.92641845151644, 18.373345730545164], [72.91475920576573, 18.371440577124876], [72.91211784711503, 18.36202368327651], [72.91781025816978, 18.34877086737764], [72.93364146874612, 18.35140935699729], [72.93519978884589, 18.34416301736517], [72.95318320024795, 18.334984833842398], [72.96127406550058, 18.319716866047752], [72.9556610574321, 18.315917314278412], [72.96700869647533, 18.31115681015493], [72.97013731570922, 18.300049074264077], [72.98173423544718, 18.29959047410889], [72.99285086013872, 18.273698650440505], [72.99783154677361, 18.285167846535398], [73.01582307625085, 18.28546381618535], [73.02867455167357, 18.264258534278635], [73.05313866286018, 18.270441985022984], [73.03693573211422, 18.292789214696096], [73.0448252992847, 18.313054791700523], [73.05880126961043, 18.305745920373163], [73.07146620986438, 18.308011937354937], [73.08808250218499, 18.335849268340883], [73.09204999518062, 18.32835950290964], [73.09344871789206, 18.336704463748738], [73.11300012245285, 18.329513587887252], [73.1126840538134, 18.3236553917346], [73.09160424215348, 18.32597688563686], [73.08275286048635, 18.311827745221585], [73.10270726635159, 18.265415649785396], [73.08240066699607, 18.292509303542424], [73.05354605602805, 18.30241306351739], [73.05040150427428, 18.296964112060916], [73.05524702589997, 18.293585587516638], [73.0517170879062, 18.28141306022184], [73.06788674235912, 18.279153778631432], [73.072755064125, 18.26345109480211], [73.0615185628521, 18.252167079058566], [73.07810585755531, 18.23732871429246], [73.08002116006415, 18.222390798216857], [73.08729785432702, 18.225174199647576], [73.09210633841356, 18.21898167114513], [73.0775310130286, 18.208994879412305], [73.07740170234008, 18.188780169294997], [73.08193628470659, 18.171488676847957], [73.09432597846255, 18.169343084136905], [73.10103681494479, 18.157891219049326], [73.10516169098156, 18.140359490319003], [73.08746341473221, 18.14356899237147], [73.07828702439191, 18.153198707109304], [73.07182797670065, 18.150172905569395], [73.05062897656886, 18.18240523687543], [73.05218177921616, 18.20097486657466], [73.06699298153347, 18.206540193349184], [73.06776328868624, 18.21248940026462], [73.046745406882, 18.219573676783476], [73.02239197712159, 18.240796528342372], [73.01797634068184, 18.237953581191594], [73.01650132225669, 18.244595638384613], [73.00086487541708, 18.247910558026007], [72.97924900758609, 18.239562626433763], [72.96938166816356, 18.243335545777285], [72.97346706953182, 18.246538768282967], [72.96822671408422, 18.255803625384317], [72.97442096178592, 18.262980181965663], [72.96400044969292, 18.280372577876445], [72.95420248985475, 18.27791842448327], [72.94168431994514, 18.285398797123136], [72.93558497027006, 18.280995526811772], [72.94311915493103, 18.24574872065559], [72.94207941338013, 18.232941452180945], [72.93193682386635, 18.219723222311266], [72.93856299233644, 18.21566047621238], [72.94545122362939, 18.223046090621555], [72.95724553198137, 18.218092187847883], [72.98360296659675, 18.194788100808495], [72.97842120466188, 18.191793748189895], [72.98987400947544, 18.15699981082586], [72.98104250752557, 18.135891041444044], [72.97137311636749, 18.131621297887826], [72.99940778556835, 18.07463051810319], [72.98980339830086, 18.05630763041787], [72.99634959515107, 18.04972249104671], [73.00195684861184, 18.054407720914416], [73.00868266450145, 18.05009937064901], [73.01946254223398, 18.02957896769237], [73.00274415997463, 18.020908784305856], [73.01683498889254, 18.00707946584623], [73.01874192000129, 17.990491932610265], [73.03136992871728, 17.98970858083706], [73.04045327964526, 17.97806690690028], [73.03073752733366, 17.96916582942815], [73.03595800306401, 17.95656482637054], [73.02900190674627, 17.954187877308993], [73.03012384055239, 17.944042669658238], [73.03937912902575, 17.933846272751122], [73.05560727188849, 17.931998605605376], [73.0527713785714, 17.904654322196077], [73.06358120703382, 17.891412955727528], [73.0717434084015, 17.89347468753397], [73.07519696174836, 17.87438687688434], [73.09382715117181, 17.841305972220713], [73.08816808917368, 17.838292222450832], [73.09421094290221, 17.82440327285657], [73.08897814498113, 17.808267759257667], [73.09565590459628, 17.811311034928284], [73.112604191788, 17.789109408024213], [73.13420724425316, 17.718043876229814], [73.14057291207061, 17.721427406990074], [73.14473954539507, 17.722113677000948], [73.13509141735975, 17.715283982671913], [73.13514594599582, 17.708663694624235], [73.13972963656396, 17.705419325493764], [73.13998836124726, 17.70255632016598], [73.13050169729942, 17.706000113971186], [73.1170072230677, 17.697931764523], [73.11476368423885, 17.68442066282845], [73.12134183416373, 17.6660196138395], [73.14485623026228, 17.638524997159806], [73.13267084394462, 17.64399650383109], [73.12686328234517, 17.637552636727047], [73.13764004831359, 17.61086607616417], [73.16651855356987, 17.58318850306422], [73.17197324165436, 17.58320720992868], [73.16761596426701, 17.587288807932985], [73.17705617363659, 17.58256444369698], [73.17043191857806, 17.569805299626108], [73.16797526702449, 17.57708444533387], [73.15625173783205, 17.566557055880246], [73.15274453170655, 17.573742771672983], [73.14368429712574, 17.57028474402623], [73.13756628584895, 17.556463931595047], [73.1549512899144, 17.529071825919335], [73.16210299977513, 17.529960698393893], [73.17843506873307, 17.50867557834748], [73.17895935248237, 17.512926573464057], [73.18181460090052, 17.503892204275108], [73.1830943471425, 17.508985670060035], [73.18496481653213, 17.509903264696057], [73.18371139272463, 17.502648370851166], [73.18136456111286, 17.503096721586164], [73.17863414617983, 17.50747643505203], [73.19435682410018, 17.464832402044763], [73.1840597809514, 17.45559988869584], [73.18702118957488, 17.44227938657178], [73.21164120248072, 17.43752526786285], [73.18826786972957, 17.431191974497068], [73.1874120106224, 17.414484526235537], [73.17663913615581, 17.40430154170268], [73.16771630428764, 17.40437055993622], [73.18399577059748, 17.384802896760032], [73.19820918182248, 17.390279538829127], [73.20746507216708, 17.386122639249045], [73.21708111327877, 17.358213539652102], [73.22612840223798, 17.35397113866776], [73.21504688280945, 17.345594212116506], [73.23064234670916, 17.335412083722023], [73.21906474254644, 17.3291785790219], [73.23080683093264, 17.318841468453975], [73.24424806561075, 17.321617551796567], [73.24668554711613, 17.308051700934833], [73.23993413013925, 17.30300496241637], [73.2414281964417, 17.294590195438445], [73.24938970788669, 17.296110529283844], [73.24939242978199, 17.28093475525053], [73.23499142607119, 17.285900531269743], [73.22664900019964, 17.281618993168916], [73.22322045595031, 17.30239173548881], [73.20505052824413, 17.298903294695915], [73.19660286204213, 17.306773957244804], [73.18978663970233, 17.298775687107703], [73.20437787964087, 17.289250107409117], [73.2045383537849, 17.269563533540015], [73.2116480251853, 17.274487674218307], [73.20668300606724, 17.2815883925115], [73.22352746777506, 17.265537479458523], [73.22234979709883, 17.25596482635069], [73.22835949041698, 17.250883389167594], [73.22412116973621, 17.247569869011404], [73.23142381273436, 17.2457950532778], [73.2327281880865, 17.231014942674918], [73.24481945162361, 17.22250660425709], [73.24390878540267, 17.19836881418117], [73.24961695021254, 17.20432772524959], [73.25512073302394, 17.201799170956125], [73.24763319248576, 17.19547278504426], [73.23137473597377, 17.198177781597032], [73.25226978394271, 17.190215065054286], [73.26686598078496, 17.152826692230583], [73.268372659434, 17.15341973706096], [73.26729828513396, 17.153775092156092], [73.26469108402364, 17.158465160308733], [73.26426186359099, 17.162268669991516], [73.26975628505879, 17.155254661418038], [73.2685117437928, 17.15261316915601], [73.27415628362606, 17.15283526466743], [73.27525104159818, 17.156839642075425], [73.27653815222887, 17.156660800630803], [73.27545060233858, 17.152747406398476], [73.27201400648933, 17.151524745035175], [73.26792769961926, 17.151263760510567], [73.26394289968137, 17.154562737803662], [73.27319721348263, 17.120138668419358], [73.26749898942971, 17.11240464430335], [73.2778633873602, 17.113312868991873], [73.28460312713668, 17.100817720173662], [73.28163116780016, 17.111600730750702], [73.28956618702911, 17.115258093665865], [73.2831234644215, 17.110819852153572], [73.28690218544332, 17.0870062301273], [73.28388685185165, 17.08006334995249], [73.29113028868603, 17.07829464986516], [73.28755908747802, 17.0531155186954], [73.276841877118, 17.035666081945486], [73.25828128826447, 17.048376582842522], [73.25564769015949, 17.02709796873559], [73.25869653360623, 17.019962023672104], [73.27523695960781, 17.024033207672108], [73.28300986077572, 17.013073371435034], [73.2814958716369, 16.99824991710565], [73.26901840708778, 16.99844941824528], [73.27152928903674, 16.98657954151869], [73.27874756406003, 16.993075736310438], [73.29604329534915, 16.98437252831449], [73.2924376572247, 16.95620363360663], [73.28198364156484, 16.95040226737978], [73.28718150580114, 16.916660893977845], [73.27676606290129, 16.892019156307125], [73.29439795904106, 16.89875346806942], [73.30324780099576, 16.89138115189605], [73.28623157691406, 16.880244868490827], [73.30026407732228, 16.860475879026044], [73.28819380741338, 16.857353560512102], [73.29346472444522, 16.85531282737009], [73.28828149286655, 16.84427956328764], [73.29394512100126, 16.83930269192365], [73.29575001966339, 16.816463467449207], [73.31852307568381, 16.805545896808283], [73.30517172014483, 16.76612304920953], [73.30547514230169, 16.73023971964475], [73.31925801436722, 16.70647871048285], [73.31856566750636, 16.696451758881445], [73.33014069889414, 16.687090047720076], [73.33846248237876, 16.68707114459061], [73.34106825426947, 16.697147117396177], [73.34466156750825, 16.690734129666716], [73.34121397627993, 16.680277531544572], [73.32908729756105, 16.684873759216277], [73.3329433608339, 16.650468345262606], [73.32369553197066, 16.64784312792592], [73.3228232983725, 16.636303504850027], [73.32895585696699, 16.641299048338226], [73.34139565605456, 16.63830426058864], [73.34139617617912, 16.628733311157593], [73.33025024754471, 16.62021105516274], [73.35164907072496, 16.622953175394137], [73.35107599408272, 16.61272122621511], [73.33951032583515, 16.604202512059274], [73.31994880175272, 16.607715404887443], [73.31673309085204, 16.601787480535975], [73.33378287239951, 16.558965997257747], [73.32072313156132, 16.550533922277282], [73.31764199098515, 16.55652949633528], [73.31060356047836, 16.541337316385203], [73.31816577527113, 16.530143317274383], [73.31582870744819, 16.51285009831966], [73.3251490195751, 16.513080907776164], [73.3518747796266, 16.44362831218325], [73.366313745243, 16.44112540659242], [73.37806590823511, 16.45360698830114], [73.38560361069872, 16.449250703823527], [73.37878489373738, 16.450090434816804], [73.36716527357221, 16.436367193053073], [73.35577285081708, 16.442153227217577], [73.36615303035046, 16.396675011575443], [73.39925456426644, 16.402234289984428], [73.40595656312291, 16.416050863876347], [73.41149346232723, 16.413271612934736], [73.41610936468486, 16.419940111795402], [73.41409199918667, 16.412617983330808], [73.4266161006721, 16.410568867986772], [73.46335383070353, 16.41629979198425], [73.46724355295174, 16.4258110641849], [73.47293406137474, 16.428537903265838], [73.47202156259058, 16.435875569094048], [73.47405858232887, 16.439162181583427], [73.47360292807066, 16.428327572527177], [73.46457437437499, 16.416176742872935], [73.47296595695721, 16.415000696583085], [73.48038716230151, 16.410637946003266], [73.49159427698653, 16.418555120475705], [73.49919348080944, 16.418159751778646], [73.48156513301505, 16.40920783570577], [73.46949273769214, 16.41440956950372], [73.40813606375005, 16.40671155736466], [73.40023602851157, 16.388605864523264], [73.38764671562473, 16.394267920510575], [73.37243050247166, 16.37615523602376], [73.37169178277924, 16.38879299158286], [73.36821584161888, 16.36393732463772], [73.3840638201483, 16.35892324003429], [73.39491200218181, 16.367829759433462], [73.39277346293494, 16.360767480299103], [73.40333413736514, 16.359601426452958], [73.4209144711059, 16.372497937154904], [73.43871807931392, 16.371898487923588], [73.42166159453781, 16.371176914281122], [73.39766413298852, 16.35435153143395], [73.38900483268868, 16.360992197376348], [73.38536852338551, 16.337115323641086], [73.41018842491677, 16.27422150331609], [73.41704467977888, 16.292654506817282], [73.42223359410002, 16.28470296760063], [73.43113503438637, 16.289540769335446], [73.43343554257386, 16.28500757033571], [73.44246673731645, 16.293358552169927], [73.44747135596887, 16.307509597952905], [73.44929643169057, 16.308965515936382], [73.44306068002611, 16.293124609892075], [73.4343205870463, 16.284232539088364], [73.4144650416764, 16.284495811947195], [73.41169281286184, 16.272680104309757], [73.42793130880823, 16.202263320217], [73.43775367946593, 16.202619381776184], [73.45661721167431, 16.12877752887425], [73.46241977864076, 16.089655930824176], [73.45810448940817, 16.080495316641194], [73.46627786671627, 16.072251803417895], [73.45637674974076, 16.062434459696316], [73.45720701404885, 16.053806191889993], [73.46804898063886, 16.05323043989035], [73.46693132730508, 16.04644776175093], [73.483295167878, 16.036238728820955], [73.49105660205132, 16.00931409159366], [73.48967022758177, 15.98793406888819], [73.51044575739708, 15.937335121082569], [73.51951422683406, 15.941121928242524], [73.53132832956331, 15.9329314933073], [73.54034257579143, 15.93719500020015], [73.57002749239008, 15.912614704053775], [73.58867796128104, 15.90975293799237], [73.6060693451816, 15.88124221091298], [73.61368228334689, 15.854680760579337], [73.61966995716078, 15.858138991608374], [73.62902870460543, 15.84776501337858], [73.63647556493594, 15.816116134969922], [73.65406975608829, 15.79148867285473], [73.66594425974061, 15.755008638635513], [73.65331560962748, 15.74399007924931], [73.67538205174372, 15.727022158467594], [73.6859393808478, 15.729655084265117], [73.69425667185766, 15.722771345516598], [73.71116380812452, 15.725828597795728], [73.72829115829848, 15.719756664021542], [73.74250460815102, 15.735612183429526], [73.78491127895376, 15.725385397326045], [73.78997757683187, 15.734936623042879], [73.80902279689975, 15.742473983634188], [73.82312287217688, 15.73986471323988], [73.83081427728392, 15.752635875303227], [73.82976980430645, 15.764529488127035], [73.83779010330025, 15.767106126962329], [73.843280230821, 15.781131419964948], [73.85166646124075, 15.780784004457516], [73.84674235229905, 15.786440577597334], [73.85770394034894, 15.800415865228347], [73.86725578785043, 15.796534559150565], [73.86573523292519, 15.784690866905857], [73.87960362819902, 15.774061319515546], [73.87207097875886, 15.758690673041384], [73.87524066986583, 15.750693010123202], [73.93869751241573, 15.742677183994847], [73.95176469849099, 15.716317928499983], [73.94368084908072, 15.698453224628167], [73.95931178116278, 15.699186700948136], [73.96389282798906, 15.690978880953995], [73.96777061881369, 15.659981212148894], [73.96089792657848, 15.64514510923846], [73.96763194767988, 15.630211484293076], [73.9789189944589, 15.626983702921184], [73.99077593155587, 15.61148617167201], [74.0211460057981, 15.60612508840725], [74.0309576793174, 15.622693275765332], [74.07008169766286, 15.628305063889199], [74.11308477435576, 15.646045585892717], [74.1183538327733, 15.652040596990107], [74.09429452491163, 15.663108013420393], [74.08812969344223, 15.672285016301851], [74.10891503196211, 15.67272313495294], [74.12583775220253, 15.680996462072484], [74.13219693777692, 15.702432663035045], [74.12223302766472, 15.720760050431986], [74.15104220454063, 15.73583644311139], [74.16162394087094, 15.751322996141747], [74.18959257311865, 15.752150543542752], [74.20150034767416, 15.758649100225588], [74.20903439668953, 15.78129726657468], [74.23356827732925, 15.787022572696888], [74.2276971787881, 15.756609148889474], [74.24237576192172, 15.743228053887709], [74.2683849655155, 15.754765028600934], [74.28735099370118, 15.742005787759785], [74.30796438659084, 15.748508959947015], [74.3231354602992, 15.772704624721298], [74.3457498190432, 15.764583130253182], [74.3584941416222, 15.774861756551578], [74.37203935809109, 15.798269759165283], [74.36999636455617, 15.811485813367348], [74.36069078659656, 15.817807024761688], [74.38110290655695, 15.835411427890126], [74.38315140406961, 15.849132113321799], [74.33827564992806, 15.854945948953327], [74.36332309741573, 15.87494753180542], [74.36476195146422, 15.893888570425379], [74.36868165318839, 15.894386389418216], [74.38820634275096, 15.854279687140194], [74.40623653302309, 15.855403537443078], [74.40643613149271, 15.864474036733816], [74.3928589341014, 15.878416479201466], [74.39348460800186, 15.900062553194074], [74.38693204119792, 15.905007900983756], [74.43089731776472, 15.956608488205992], [74.46329937219649, 16.039208649707888], [74.4565714246047, 16.041075663872213], [74.46309205630028, 16.04163629514424], [74.46229003682136, 16.04985435917597], [74.4297715274911, 16.059168002496875], [74.37347892360523, 16.03646019416998], [74.36912670822457, 16.039236591049704], [74.3774131412061, 16.055136948799596], [74.36140634951761, 16.053852330916623], [74.37229671014862, 16.078226433777623], [74.39093680170144, 16.080501051525], [74.39011317235004, 16.089478492433717], [74.40703417052005, 16.09352416848834], [74.41004971072427, 16.102136253543847], [74.4276968665458, 16.11198086477634], [74.45875829770543, 16.103810958244388], [74.47280424589344, 16.09062019474147], [74.48438141077999, 16.091484493530952], [74.49091276925834, 16.11673328630726], [74.47990944458203, 16.147140539802113], [74.48844436594425, 16.157277660841906], [74.4938635957278, 16.1864635284245], [74.50631655962589, 16.190258671402002], [74.5080722746279, 16.20227309475201], [74.49600330547949, 16.214315157355802], [74.50317920247923, 16.22542015423777], [74.48055739670154, 16.250139719976943], [74.46869853900651, 16.240199598297632], [74.45617225371663, 16.24387872134953], [74.45491322532007, 16.25340691758083], [74.43563026431563, 16.251160606479058], [74.43585011530332, 16.258848460777827], [74.41768966662003, 16.25801444210456], [74.41447403297451, 16.282664537935652], [74.38268756256589, 16.277371438758987], [74.38071549551424, 16.261981642864782], [74.37308848344342, 16.261649322115026], [74.35937719183472, 16.290597705091848], [74.3456772917621, 16.293775623515106], [74.34317658233542, 16.290363681916816], [74.35379042714894, 16.282835175243736], [74.35054041318084, 16.275380109370058], [74.34386467567339, 16.27809012485192], [74.33851463592964, 16.27141777726414], [74.33340757879212, 16.275984892055952], [74.33423005111342, 16.26881227556387], [74.32501428132603, 16.271769614162658], [74.32090643465212, 16.28448862229013], [74.32804128762655, 16.29325918536811], [74.34209343059676, 16.291190367684006], [74.34262864684305, 16.2980403835765], [74.33199769002167, 16.305265336563302], [74.3332988799478, 16.313464029978597], [74.32523735636727, 16.313694809750892], [74.32882591931482, 16.32376012960615], [74.31668773227882, 16.32657413555307], [74.32258591592412, 16.3343810897803], [74.31540150559042, 16.340092373401568], [74.32711570218534, 16.342521870625287], [74.31772096373885, 16.353065008619478], [74.32484872092085, 16.359948212486394], [74.31727417495418, 16.38101560022987], [74.32492206027898, 16.3783000906643], [74.32757444664813, 16.391510953269425], [74.3359507300227, 16.393753303457245], [74.34737817898903, 16.368327920465553], [74.353490757255, 16.366430893871946], [74.36377531561796, 16.405102978722034], [74.33513577031212, 16.401419008876736], [74.32893499275663, 16.419059023277452], [74.33681767883203, 16.42881792226801], [74.33631569216645, 16.445682073435034], [74.32979340487582, 16.447210022584642], [74.33267346296553, 16.45476966866298], [74.31253848764332, 16.45324619868885], [74.29712980235584, 16.464547622433237], [74.28935781926613, 16.46298118420872], [74.29097797759343, 16.504912200214886], [74.27974371312554, 16.504835360994065], [74.27446457920378, 16.485636880618152], [74.26085338776552, 16.48010696915349], [74.24745636187745, 16.49692331245357], [74.27829940181175, 16.50492459777456], [74.26452621448331, 16.540453684169524], [74.27062780006514, 16.547973390966607], [74.27720927555322, 16.545258487929903], [74.28322158386716, 16.524599121550654], [74.29167901565461, 16.533892098021653], [74.3014543577106, 16.529279363712078], [74.3062253721683, 16.503703081196292], [74.31520536114304, 16.504607698364175], [74.31579639600615, 16.554464211647026], [74.32525583381437, 16.556307024061777], [74.33977306335326, 16.54776710112131], [74.35632896014066, 16.5597569002143], [74.35800768682786, 16.538351886716644], [74.37991433212981, 16.528602314958977], [74.38723160598899, 16.536207130607625], [74.38698403838151, 16.559947878004035], [74.39670788900541, 16.58327688815846], [74.42222688015201, 16.584520952710317], [74.43551964846651, 16.601069190893853], [74.46679252238278, 16.606831608134115], [74.46589027966421, 16.62473003233288], [74.45486397069305, 16.6473041587363], [74.46882403724497, 16.663811479508198], [74.48911473641995, 16.630153831111777], [74.54456908189, 16.63547774531673], [74.5435724675576, 16.59532818096665], [74.55885280784554, 16.59466287451123], [74.56697356364094, 16.58539837862152], [74.55492545606837, 16.56452195971978], [74.56861576482868, 16.553878924684625], [74.58472070644513, 16.559135449366654], [74.58795650457387, 16.566112365790858], [74.60959389693738, 16.56960141805031], [74.61887701701488, 16.58408192529981], [74.62871153918344, 16.57774198130988], [74.63593539813454, 16.58392467411188], [74.63343171438595, 16.60036859469719], [74.64009205836271, 16.610463448750462], [74.6600651222364, 16.602908903932452], [74.67390873119487, 16.60921162293154], [74.68705943723538, 16.606797823400026], [74.68765020889211, 16.617895027936626], [74.65355656479656, 16.638838756198954], [74.66524239079818, 16.665680501151183], [74.67958300706069, 16.666179495516868], [74.67910164032409, 16.673104306781116], [74.68962851923496, 16.67703455540956], [74.68090338230631, 16.685900498742487], [74.68947692853077, 16.68647290621547], [74.6910979645121, 16.715549942523104], [74.73216960495368, 16.718332475166115], [74.77204709961673, 16.750690390179233], [74.79582646279142, 16.747755166833837], [74.79882140372789, 16.75366343358981], [74.84458924243872, 16.761823621048194], [74.84989692751516, 16.772763640007238], [74.86575809061804, 16.76336846729194], [74.86943515828229, 16.774073967367904], [74.91951971634371, 16.772499550153782], [74.91089241583096, 16.789550300299272], [74.91036914538132, 16.835149018813592], [74.90159212625342, 16.862557212080663], [74.92657327447989, 16.863545338893562], [74.92562446579194, 16.87203677895853], [74.93529736936279, 16.871072103152724], [74.93599970459128, 16.879243218737866], [74.96043647734881, 16.880954131580335], [74.9636544636821, 16.909717861354604], [74.95550659942636, 16.905213537247562], [74.92185239320153, 16.929867836223547], [74.923241442854, 16.93931261544446], [74.9317838651488, 16.944761217490996], [74.96462042570037, 16.926782663565803], [74.96023184202541, 16.937261866302894], [74.96758907564337, 16.941613711738526], [74.9644312908072, 16.947639283613157], [74.99298475235602, 16.952076488082035], [75.0266609376609, 16.944142537316477], [75.02530995322027, 16.928008781753192], [75.0446141971104, 16.94173586808943], [75.0894080284913, 16.951588448467632], [75.09638247379704, 16.9137500557103], [75.11755597165626, 16.913451511713234], [75.12039620563277, 16.902537442379113], [75.1349156055014, 16.89471104155571], [75.13655613133113, 16.874495285507077], [75.17664821285432, 16.867714593241907], [75.18905951019453, 16.875287753438705], [75.18191942992345, 16.84341021044797], [75.21427366074444, 16.841707203123164], [75.22771094822521, 16.84318350153], [75.23773223193795, 16.867948549828082], [75.26479054112113, 16.86280763982717], [75.28210063377668, 16.880298112742548], [75.29000636163919, 16.904033151768317], [75.27945384660673, 16.92333540488387], [75.27967408027672, 16.956563008271107], [75.35012120722743, 16.95782325790921], [75.3922049552451, 16.980097257392547], [75.42794719114328, 16.966501391259413], [75.4416725997767, 16.982237761257522], [75.46562105912554, 16.988371647266792], [75.46625130095923, 16.981318429651736], [75.48330491651632, 16.97600141594345], [75.48914572476443, 16.944429972367253], [75.50972912200845, 16.950257445129697], [75.52938182599055, 16.969406840607657], [75.56771912316636, 16.96575300868303], [75.56728638942262, 17.009052850425885], [75.57316451278932, 17.00961304510774], [75.6069543035366, 17.004572532388416], [75.60792949125288, 16.971004225053708], [75.63399801599473, 16.97026637358688], [75.64482282655949, 16.95408624128198], [75.67038636695767, 16.962059357375825], [75.677147518079, 16.969010009414102], [75.66614078878774, 16.979778756572752], [75.66976010376241, 17.038166691912593], [75.65006032446614, 17.03224452906829], [75.64106500394442, 17.037587810788764], [75.65037383829694, 17.05726114216622], [75.67678162617892, 17.065421945219992], [75.67235543722956, 17.11600126676585], [75.65041406575367, 17.115697723908784], [75.6495989317699, 17.134381627316674], [75.6254445956259, 17.174004921454], [75.62850258841382, 17.18866235285608], [75.63999812428882, 17.188869519841464], [75.66197949864262, 17.21458173920192], [75.65778441567312, 17.263211275751605], [75.65423711504151, 17.273818586834313], [75.62791785972404, 17.274342940970524], [75.6224768152521, 17.29510628825075], [75.60380390554698, 17.305506266632346], [75.61215717677896, 17.325138972917024], [75.61009501499251, 17.345042745726683], [75.58091571964314, 17.351225307128008], [75.57421335247741, 17.383301038239985], [75.60619314392838, 17.39448036123987], [75.6135865311433, 17.39191699853085], [75.60667166120888, 17.42037387612101], [75.613423697125, 17.424743307538378], [75.62168315729183, 17.459247261061474], [75.63305039308301, 17.477215271676645], [75.6589077652241, 17.458059053732487], [75.67594575279021, 17.455944340166596], [75.68356535375996, 17.41692547102056], [75.69079862525861, 17.409475372545643], [75.71250953035506, 17.40793573537577], [75.73366340541523, 17.42009475617148], [75.76593560118616, 17.405306168151487], [75.77210236133847, 17.385746972093216], [75.79300780640847, 17.369699885051137], [75.81372712144993, 17.372762476167324], [75.821507978098, 17.42122452888658], [75.8511508283885, 17.41052735175348], [75.8609445167375, 17.385597383463313], [75.87526917173405, 17.398088241553367], [75.87657251222691, 17.41614541828348], [75.88425477158607, 17.4179616328097], [75.89413010242134, 17.401198039528854], [75.89064751103295, 17.35652512177732], [75.93088413687519, 17.32257606986049], [75.96877140324648, 17.336471104974468], [75.9983361737691, 17.337971422213478], [76.01439609092522, 17.35353636491916], [76.0605982507029, 17.355310881382724], [76.07919254973577, 17.331605893590375], [76.08755905135526, 17.336511612696007], [76.09353303664084, 17.349354285069712], [76.0894412689122, 17.35313625510384], [76.09980229277045, 17.36465376105048], [76.11901562625553, 17.37050734122461], [76.16267921531224, 17.345223538045], [76.16514031981467, 17.30333892720007], [76.17637572604127, 17.30079147303118], [76.18330896831986, 17.31943846730611], [76.17663973461507, 17.324618658591117], [76.17037607049811, 17.352627568882554], [76.19645298101318, 17.363669917192727], [76.22950539954098, 17.36520865109754], [76.22859107987175, 17.375846773183518], [76.24214758457052, 17.378840266234825], [76.25078768427942, 17.360436172928395], [76.27206896919293, 17.360595293175454], [76.27641995208504, 17.334577932048074], [76.31772228528148, 17.332379512360674], [76.31440319715621, 17.348393491393455], [76.34535788779885, 17.354451739737204], [76.35406980242486, 17.31432058967336], [76.38321760014541, 17.314529891706837], [76.39666555242523, 17.34710772646865], [76.41224623993682, 17.351071506866273], [76.40917836837573, 17.371391261964355], [76.36348513564754, 17.377671421879462], [76.37156943511377, 17.436426266859886], [76.33332206828108, 17.433903631758852], [76.33074728647098, 17.470195741001763], [76.35042102809874, 17.47417715791409], [76.37557562034533, 17.490221865790037], [76.37474800966058, 17.495651651978072], [76.34582454911423, 17.492531750970485], [76.34663200429893, 17.512581087073873], [76.36727903101115, 17.519454525771295], [76.36280052777289, 17.537373984839938], [76.34075304819396, 17.542475862610416], [76.33134774466141, 17.5974191763816], [76.35009138142377, 17.59410025611666], [76.41974485310915, 17.603710737091728], [76.42925153062322, 17.644953575490902], [76.44506457636622, 17.64095154099677], [76.4418954314349, 17.64930862506493], [76.45454268296263, 17.649786497262337], [76.45292020788021, 17.65579030316224], [76.48980813353221, 17.66049929057734], [76.48454734320855, 17.67851164567144], [76.48728762613499, 17.71476304336041], [76.52396159015429, 17.715151537238143], [76.52333558208055, 17.75979622685629], [76.56132176464273, 17.764618126069777], [76.5727922500977, 17.760525752866126], [76.56401640506787, 17.750832524512433], [76.5703540634148, 17.705405332031578], [76.58208139876906, 17.705681686448163], [76.60047513184679, 17.7256530987691], [76.60535450199238, 17.75864403090256], [76.61538970330383, 17.77039541446388], [76.63194321147093, 17.754640556007207], [76.63331735627618, 17.72821963602507], [76.65565647121716, 17.717853861851722], [76.66424582150239, 17.687560216355237], [76.67497835891778, 17.689993078314153], [76.69089645095517, 17.68100491411407], [76.69259650634216, 17.706723416903785], [76.70370452607156, 17.715620043149936], [76.69970280546698, 17.727248666911365], [76.72832736238232, 17.7375602252923], [76.72486402099213, 17.75110158636947], [76.71884387487732, 17.751478769874513], [76.72112898324595, 17.76949699970231], [76.7119690230922, 17.773266342629427], [76.71414854707557, 17.780938966971505], [76.72099729381854, 17.78805645541399], [76.74070254295657, 17.77946333903418], [76.76209500067472, 17.787015961114392], [76.76656645123967, 17.79846750035941], [76.77878398287147, 17.800479110364915], [76.79045015732795, 17.826332607914768], [76.76755662195656, 17.852125523757678], [76.73853967373859, 17.85667967296103], [76.74002992579433, 17.89969872048157], [76.76821839824993, 17.901149714488092], [76.77510685502007, 17.8777108002251], [76.80672608607222, 17.870573232467258], [76.81027250545651, 17.887039153574843], [76.83125810899594, 17.885613534777637], [76.8319768878857, 17.89525408156883], [76.83978138010724, 17.899371922558444], [76.88432369847992, 17.894290703908947], [76.884041363376, 17.898979386247184], [76.894242821287, 17.899824457859648], [76.90132043630648, 17.917239844971835], [76.9190366114879, 17.91595136819251], [76.91372164287114, 17.993218587352565], [76.90676385682235, 17.996591025125433], [76.90570041501933, 18.009706069758323], [76.91437200247559, 18.03535733684645], [76.95236137495533, 18.04021542787541], [76.94495741367122, 18.048357128477363], [76.95167686589535, 18.06104904367461], [76.9452705744641, 18.083196433872235], [76.9629979687051, 18.089567365045593], [76.9664063089454, 18.098196682449682], [76.95433087731685, 18.11053969518339], [76.92055703795405, 18.11817804525277], [76.92030680055356, 18.12506873762258], [76.93185279839132, 18.133521267402408], [76.92402085904459, 18.146628293059123], [76.93153421177412, 18.159648173137764], [76.94241872796589, 18.15640717959083], [76.95199218893312, 18.188093787156273], [76.99066627618704, 18.189982263902003], [77.00117076009786, 18.160894272561208], [77.02336030823896, 18.15850439342], [77.02314020123141, 18.175647583871612], [77.03323418380349, 18.181987394899473], [77.05203340292574, 18.173224089922055], [77.05325790277773, 18.159446645572412], [77.06401365625331, 18.150647089776275], [77.11159808699632, 18.1558284777961], [77.11639305772604, 18.17101134426431], [77.09765435540956, 18.19671808052649], [77.14019278031839, 18.20771287810176], [77.14275373975116, 18.21703499684188], [77.1515769754038, 18.21703921465899], [77.14868784432973, 18.239039707069445], [77.15918908172912, 18.255783774582035], [77.16980453093373, 18.26086508363454], [77.17486727777155, 18.284855365674105], [77.18826872696405, 18.284735771546554], [77.1975283947244, 18.27660353309128], [77.2130680930079, 18.280313971317227], [77.19876781469495, 18.315445435294922], [77.20172328814938, 18.322158420350338], [77.21184912498146, 18.31627391347931], [77.21912234006922, 18.325723652899445], [77.22964010916479, 18.34820146631984], [77.22014644105268, 18.349266354574333], [77.22588637298595, 18.365212677621336], [77.246446244251, 18.370758281530737], [77.2484798863238, 18.376048879018573], [77.23374073518045, 18.388193055029326], [77.24182368268221, 18.412599321358357], [77.25942412790556, 18.413253369778843], [77.27909330968491, 18.429789964312214], [77.31690652613071, 18.44224495390209], [77.31994013594687, 18.45801896627803], [77.33608650606759, 18.450146806975425], [77.33571208646055, 18.442308839307657], [77.34527272397708, 18.433603125002094], [77.3535395656006, 18.447658453622502], [77.36569022304937, 18.45155595492161], [77.36220338173133, 18.429880531223272], [77.37069949228002, 18.418783604460646], [77.37288648395833, 18.401095150939334], [77.40021752345842, 18.40199059632798], [77.41414725839478, 18.393100107710712], [77.40988882712973, 18.377404167489782], [77.39492280466479, 18.368447489392985], [77.40020123161243, 18.347439518163796], [77.39439271510382, 18.347422129227322], [77.39503333337733, 18.341494594639922], [77.38248071756819, 18.34224588328576], [77.38099281820014, 18.331015196724252], [77.35677739302356, 18.320195420916807], [77.36584244347259, 18.307118267146933], [77.3851706247701, 18.309304988111702], [77.40904724404906, 18.301462286541017], [77.42835966620156, 18.312358242601455], [77.43771647867509, 18.31030735338345], [77.43656320085208, 18.29322238096371], [77.44039692931202, 18.28262290532945], [77.44590907903198, 18.28380229377495], [77.44762917852789, 18.2699892231803], [77.4650882810278, 18.262530130476797], [77.48143019731793, 18.272350194023822], [77.49271754413424, 18.267197577311645], [77.51160783086672, 18.282043256533203], [77.51258706459501, 18.309551882714747], [77.55131208363058, 18.291687018201866], [77.57142843597862, 18.308825091465824], [77.55805597182706, 18.331412024689467], [77.52237379100059, 18.346462106981654], [77.52550434430725, 18.372699991081703], [77.53863231219125, 18.385877226590548], [77.55163410989701, 18.38889286416963], [77.55678802315974, 18.41713840122563], [77.5281988077643, 18.428907622831588], [77.52754815620739, 18.442105722887067], [77.54058996487585, 18.4447013893146], [77.56421272654377, 18.437297644086353], [77.58532889302322, 18.446787600640008], [77.58363583820724, 18.4562010254609], [77.5507937000161, 18.460404250626276], [77.54859521798697, 18.46857593885767], [77.57289259107705, 18.469809899406506], [77.57640076468813, 18.486779568708805], [77.60315730281792, 18.476842895464664], [77.60473800084974, 18.496362084483252], [77.5944284549488, 18.496191441367223], [77.58593819602592, 18.503991088225444], [77.58778402642396, 18.51285150216561], [77.60031255031551, 18.52229160322617], [77.59659808398932, 18.53019490499991], [77.59072229444575, 18.526660579234072], [77.59640042138915, 18.548936219372774], [77.61009927402615, 18.549877131481193], [77.61252717949061, 18.544474400623326], [77.61521598895126, 18.550840760171287], [77.62928293885233, 18.553670623553508], [77.63403076689426, 18.543913180987893], [77.63964999759268, 18.5549364565384], [77.6479436233847, 18.55492690476891], [77.65210495844562, 18.551789581144327], [77.64592747061216, 18.538832462537716], [77.65589090282064, 18.53089476144628], [77.70159138764811, 18.55516745573597], [77.73852919854446, 18.55678555697549], [77.74041016744317, 18.57521444454803], [77.75037207700723, 18.589212296749775], [77.74568587069886, 18.621284945066837], [77.73053359693279, 18.645141623488048], [77.73573801168413, 18.66098320729011], [77.7300034534729, 18.66693297957918], [77.7492775364274, 18.682662886461046], [77.75353260260336, 18.700988194218812], [77.7681807014078, 18.705855752725963], [77.77193382134233, 18.689051556322227], [77.7873168426605, 18.68263678177876], [77.83998238000912, 18.80481836672694], [77.90669906229962, 18.826695093407046], [77.93452456507482, 18.82226348883696], [77.94856250478209, 18.82983473774414], [77.94892731331393, 18.84328735922802], [77.93480215168415, 18.84514277051353], [77.93747870992095, 18.851589392314672], [77.92937691486627, 18.85358402078497], [77.93008726576203, 18.858724172659123], [77.90325876089986, 18.866622929908644], [77.90393293124922, 18.881243239456303], [77.89161089770214, 18.881411197604418], [77.88541118644686, 18.904197100855757], [77.87396449466885, 18.907671147813655], [77.85796643011331, 18.902348113000837], [77.84328134946524, 18.90868968951171], [77.8586184498044, 18.949107285092044], [77.84196943006138, 18.949868659235506], [77.83248054457982, 18.941624601403365], [77.81927650645925, 18.945855703640717], [77.82178480665007, 18.97850338404316], [77.79116776577328, 18.982812693319026], [77.78765363453526, 18.97264164121143], [77.77152465579842, 18.979153957978948], [77.77537850921566, 19.000621412713905], [77.76202366641672, 19.03184711277518], [77.76483920570611, 19.062649625926344], [77.80037636341144, 19.051116483833326], [77.79682469696758, 19.072583821258423], [77.80996087814825, 19.104728733670992], [77.81816704935412, 19.104975742736293], [77.83129651383139, 19.08607574440845], [77.85042133631153, 19.088552322020508], [77.84769091419196, 19.11600013530571], [77.83408920536982, 19.134303196706465], [77.85255712132373, 19.154672994519874], [77.86052005480178, 19.180349334656103], [77.84774694570952, 19.18958980241927], [77.8660320922323, 19.226396819005984], [77.8714304918811, 19.25501521276371], [77.89003238167815, 19.260886062500752], [77.90287215384936, 19.256458052756813], [77.90758862619626, 19.26822367103455], [77.90348355621485, 19.277954746133574], [77.86560089460775, 19.28381616024779], [77.86348409548907, 19.304190823942523], [77.89005599838694, 19.31329226428763], [77.8943448169631, 19.320464790764003], [77.91157070783211, 19.316252122774586], [77.945146306978, 19.342448412850008], [77.96188404164354, 19.335607149090155], [77.9987039522521, 19.299794052293148], [78.01352087683779, 19.29471431925956], [78.01484374939993, 19.27903415111817], [78.04253007349318, 19.270600964672862], [78.03596468323859, 19.25063065651568], [78.0416374912572, 19.243425469752474], [78.05569905755478, 19.237119271653892], [78.07912039896966, 19.2548321275882], [78.08917311653082, 19.239366211076007], [78.11706123996615, 19.248635640859778], [78.1445699285002, 19.22939959015953], [78.17534369574963, 19.237577799498688], [78.18179402259611, 19.247617676623598], [78.17668907649954, 19.278547682469785], [78.19376108775703, 19.31488523084009], [78.19229950902682, 19.325827884890582], [78.17624787433763, 19.334924917125893], [78.17217052906086, 19.349297488460174], [78.18769497484914, 19.394591561255258], [78.1762120441342, 19.412260825484054], [78.19508711789734, 19.406752369775784], [78.21160851847954, 19.428477230104807], [78.21998287676448, 19.433017428737916], [78.24453021147224, 19.428801768576996], [78.26870217525705, 19.44846621601591], [78.27046043428794, 19.45615460624079], [78.2869909896012, 19.44852837147173], [78.3043616475715, 19.456136985714377], [78.30924406570085, 19.481083780576277], [78.29041679937882, 19.527623317473118], [78.29325012980237, 19.542232944150534], [78.2839555445269, 19.541410818709885], [78.27433136288211, 19.553973618589428], [78.27527207954596, 19.562460678454663], [78.29358334458566, 19.55898343319743], [78.30370918860423, 19.569319928489527], [78.30558703226406, 19.607065746735564], [78.29391959297966, 19.619440771435727], [78.29048260726158, 19.645999822510376], [78.26266933864225, 19.66506257222558], [78.27620594386082, 19.692413735000816], [78.31184105027151, 19.691049357345175], [78.31867341264199, 19.705524821704515], [78.34315353809514, 19.7132492448683], [78.34125392466274, 19.735755256212702], [78.34930798054828, 19.73797485143048], [78.36469360518414, 19.781230751493847], [78.35746064899415, 19.80543312441565], [78.33404366800164, 19.81459034602824], [78.33643347142335, 19.837921793075125], [78.30148360709794, 19.840416390872097], [78.28609454371116, 19.84793494536905], [78.3070468925171, 19.9142953535282], [78.33179769473841, 19.91337198043792], [78.33411096618948, 19.905294800951314], [78.3243824434278, 19.8948326041439], [78.33210704038628, 19.88489865218545], [78.38068973476857, 19.880435170206926], [78.3864768435256, 19.845358574111675], [78.42297024347785, 19.817626549040824], [78.45197784382698, 19.812880952273368], [78.47247690723214, 19.817338805237387], [78.49025594561881, 19.792685352906368], [78.50724051037496, 19.797549482383346], [78.51503580923787, 19.818934502814674], [78.55202364551575, 19.82408619564798], [78.57230436710289, 19.815847652879167], [78.6073282157768, 19.817610459761166], [78.69257854195395, 19.79103036196536], [78.70138112623653, 19.786740147999478], [78.70611040766107, 19.772307081960964], [78.71917651845295, 19.766652415214693], [78.74007261745075, 19.7831375308366], [78.75638650271071, 19.772510033707118], [78.78238122186885, 19.778414677767504], [78.8021760725666, 19.756539148173427], [78.81693398951622, 19.761838181929416], [78.82589319057696, 19.755149787958935], [78.84097822095245, 19.761895941179823], [78.85993791871033, 19.68949774092412], [78.85193531113772, 19.658367321188422], [78.88674151778123, 19.65507835902282], [78.88646086791681, 19.662460179050424], [78.9035502175576, 19.670016222638687], [78.95557251984023, 19.655798922139414], [78.96186387901741, 19.637451685722954], [78.95563447574708, 19.60017939138664], [78.97179842949119, 19.590021478907946], [78.97284907299635, 19.582396174454786], [78.95255759228706, 19.564986228306616], [78.9376872718409, 19.561881817700304], [78.94045815048759, 19.55187652924345], [78.97423736447071, 19.549391927336238], [78.98126609047749, 19.560848118223177], [78.99776171390259, 19.54907413780072], [78.99804545217498, 19.540093407982642], [79.04602505540474, 19.54833538785106], [79.0769153188752, 19.532408795073785], [79.09804768467416, 19.532037229429893], [79.16136710474849, 19.488274244727503], [79.16784511677372, 19.47237017679003], [79.19032447939178, 19.458996807751564], [79.22360154501256, 19.469087369831705], [79.20386345616268, 19.494095547816414], [79.22117481544281, 19.52100366150327], [79.23374019810879, 19.520021552045137], [79.24003494662952, 19.535252557345654], [79.23713564123653, 19.55715050468535], [79.2510372598028, 19.577511903607043], [79.25313582222287, 19.593299394912343], [79.24442447443384, 19.594878209459374], [79.23865490168944, 19.60618267297455], [79.24356864676771, 19.616700934593812], [79.27296058681955, 19.598852075514706], [79.30685155122404, 19.59656895313506], [79.31394163306308, 19.566433987494122], [79.31845512478333, 19.576736568529974], [79.36574060518294, 19.57634521653074], [79.3727634418347, 19.56100375949338], [79.38568778859329, 19.55834470258652], [79.40532903456393, 19.535682026589303], [79.42048320377526, 19.529773018450296], [79.42257008091012, 19.53805750842512], [79.43334421391644, 19.537271513829502], [79.46897137562674, 19.509589334349677], [79.47143471244263, 19.50020733401787], [79.49839678690606, 19.505710802116734], [79.51859792584388, 19.52019895773472], [79.51862008279035, 19.5431252649894], [79.53993624748975, 19.554677500674686], [79.55294137255528, 19.52418516388396], [79.59616261589471, 19.507294542598792], [79.6029743637261, 19.514568054585382], [79.61414617282384, 19.559694446991887], [79.6279276722636, 19.573188126054543], [79.70900709452542, 19.584496600854127], [79.74308701865162, 19.60864488485602], [79.77861325643637, 19.599685641478874], [79.8144702637902, 19.575718199376293], [79.82842531235292, 19.543425725269515], [79.86459008970965, 19.510534366045746], [79.91450911072204, 19.496059708151424], [79.9448249779251, 19.469836369147387], [79.94761421723787, 19.44970098730928], [79.97239939618846, 19.416235011397937], [79.97962032393681, 19.390348342436052], [79.971832387666, 19.381580068802577], [79.95908619838781, 19.335963086335962], [79.96587816351999, 19.303061868122004], [79.93636130374475, 19.26414990161058], [79.92474865630277, 19.227322259286982], [79.92545976807156, 19.210662031928376], [79.94528929194264, 19.179164438277223], [79.94567481382828, 19.168960193957414], [79.87375867997832, 19.12407470834413], [79.85843685099898, 19.102439061927505], [79.87111009977102, 19.04104028515431], [79.89922634857612, 19.040267427704936], [79.92892380835107, 19.04921837956617], [79.94038542204432, 19.032037391999395], [79.9416297584944, 18.99211374288162], [79.95705322466158, 18.94290035082744], [79.95362063170525, 18.904529738063033], [79.96161194475977, 18.866652142803474], [79.94764934585707, 18.85020761753179], [79.91911262710852, 18.833840224590535], [79.91403806652639, 18.82383186836146], [79.92412413853408, 18.80692655073824], [79.96416123956861, 18.773851130155613], [79.99305770574068, 18.769960570982143], [80.00099979381255, 18.776092816989216], [80.0185508972723, 18.770409833029245], [80.02499056650626, 18.754966603133262], [80.03868951975457, 18.753000035441133], [80.0528033464421, 18.72508639291168], [80.0885127237638, 18.70730577367738], [80.11812773436536, 18.680545488881688], [80.15771341310499, 18.701008842728825], [80.16862815670774, 18.699738602831292], [80.17870975241036, 18.6832971219514], [80.19657410020632, 18.680825162658337], [80.21277656293003, 18.70574750576946], [80.2304027862088, 18.70183597910928], [80.2484819984443, 18.706366404809945], [80.27289101775115, 18.72299154160009], [80.24431122119144, 18.756256357797625], [80.24524562808875, 18.765495609646763], [80.2747515311125, 18.76545171034818], [80.2883781690821, 18.7738109991429], [80.29994030874718, 18.794477521215086], [80.32299889517897, 18.798998332978027], [80.35153664339684, 18.816423732965497], [80.34950200239747, 18.848036590384222], [80.32632638165383, 18.880932580654317], [80.27085876627038, 18.938438293351016], [80.27329543030888, 18.99295323534256], [80.30314306504313, 19.02199150913427], [80.2973636395767, 19.048839376817018], [80.32969732502885, 19.069940430560987], [80.32798912910873, 19.09488571684569], [80.33967237604719, 19.099947182532137], [80.32759450639097, 19.13494882900886], [80.33325462750281, 19.145361668881268], [80.39397789664311, 19.187633552810663], [80.38415301699078, 19.21485526335925], [80.38928775301883, 19.237798256572134], [80.3957646502348, 19.24629739205583], [80.43004930580412, 19.253908049185835], [80.44850811463765, 19.266467777857173], [80.48418467380709, 19.339536268017877], [80.52044886951292, 19.347622391021314], [80.54429278652229, 19.383728087864423], [80.57606111275877, 19.40220636802446], [80.5917960832255, 19.37594480741445], [80.59003073379208, 19.351801818725843], [80.61268646354817, 19.309359769070593], [80.63164148288003, 19.30701106373255], [80.65417958004633, 19.322655571412078], [80.68001622985045, 19.330179378911463], [80.69344081335646, 19.31459848045765], [80.68977804956646, 19.286817373285743], [80.71082259696158, 19.281600298379463], [80.75733732194908, 19.28973341904198], [80.775154987893, 19.31435681411136], [80.8052792013268, 19.32713701525746], [80.81035950843179, 19.336714258503758], [80.85298729954174, 19.363858610091484], [80.82802445269255, 19.380091088713208], [80.80958965941981, 19.42024707869875], [80.81342866638036, 19.433603976723365], [80.83046045107942, 19.443372506590595], [80.87397278809681, 19.445045603922118], [80.88230469469637, 19.45216609371245], [80.89804757482915, 19.480201238505945], [80.89543000177052, 19.519730621702255], [80.88414071818643, 19.52625904893862], [80.87360532863657, 19.518769080793835], [80.85666643872104, 19.523043930624933], [80.84413050013515, 19.538477672135972], [80.83516592265737, 19.566758184228448], [80.81653556255404, 19.57118191747353], [80.78983637197364, 19.5603579163546], [80.7754940812515, 19.562429417768623], [80.76739228709512, 19.57481974050547], [80.7686969885357, 19.58785788015364], [80.71931802479062, 19.615366989822114], [80.66536986928608, 19.611741004996794], [80.66289589102732, 19.62360202535731], [80.67658958823287, 19.652461190235908], [80.67640804230723, 19.69941191607745], [80.65428862564036, 19.708422232270454], [80.64012980234024, 19.725335143339823], [80.62675900905512, 19.725814039958752], [80.61105646327863, 19.73820037107296], [80.58646578126513, 19.741164712517506], [80.57148605410221, 19.75907876835878], [80.5526368733788, 19.765414470714383], [80.54264695075092, 19.779782186740423], [80.54620278268277, 19.818349424041855], [80.52020568029415, 19.831745549560594], [80.48058100119648, 19.827532760415092], [80.46889143461001, 19.81031141778995], [80.48498699332332, 19.802343028896374], [80.4890497095357, 19.77027064787847], [80.46425822800508, 19.79580203500805], [80.44929687228802, 19.789798028363123], [80.42416264934053, 19.799187562168555], [80.40173049319066, 19.79614496383642], [80.40769385859298, 19.805863112732553], [80.40209788168399, 19.81665312356283], [80.42968026890225, 19.807004239658447], [80.44072580451544, 19.810195145006066], [80.46909349266689, 19.82688865849279], [80.48630623759004, 19.863466708224454], [80.50584808677112, 19.870522083363724], [80.49142602116018, 19.902040076772366], [80.46862335666798, 19.907590875900468], [80.45292077316223, 19.90437832174138], [80.44984847380509, 19.896318344873094], [80.41388975829648, 19.907317763041387], [80.40796009858194, 19.912580516273636], [80.41126256158621, 19.93835949957291], [80.43200926446406, 19.941458113586712], [80.45217109581995, 19.957471770153422], [80.46604831704143, 19.948054983409463], [80.4731815782012, 19.95081608091667], [80.48075096154993, 19.934244067761572], [80.48876615092638, 19.930481829211622], [80.50571140810065, 19.928206103557475], [80.52991848972489, 19.939336004002286], [80.53892584856972, 19.951758620906407], [80.53766127666954, 19.97365849115295], [80.54962212998025, 19.985833518738993], [80.54989952075681, 20.000649770650572], [80.54258410730857, 20.01063368746183], [80.55682513184709, 20.07174874261765], [80.54401572273248, 20.09551303836215], [80.55207092756326, 20.117988065707618], [80.51240957743909, 20.135870213772254], [80.50559332006496, 20.144465001120626], [80.46014596521321, 20.150963425612666], [80.45543140088795, 20.13795061651548], [80.43359694959216, 20.135256617976484], [80.4018173944146, 20.147268810922395], [80.3885381313721, 20.16507026976833], [80.40069221499537, 20.18958819905273], [80.4210142258479, 20.19604351622983], [80.42219529125761, 20.205807056684215], [80.40484533675965, 20.218599073965844], [80.395273555642, 20.244873228846895], [80.4516397773637, 20.258089374880974], [80.48079577041462, 20.274955218640144], [80.51883516917421, 20.26604266583604], [80.54351542579792, 20.29340503291804], [80.54959073475936, 20.30883764325364], [80.61053289818159, 20.31828171179902], [80.62635710279702, 20.33250614476202], [80.61074602527935, 20.37508808700407], [80.59148088685015, 20.39295428709618], [80.60009593164749, 20.41789451390061], [80.61364892303517, 20.434862882620514], [80.60218306031062, 20.44984165715806], [80.61260800558958, 20.461809689616747], [80.61962924773174, 20.504533748129976], [80.62133052123426, 20.532680311298563], [80.61528078820724, 20.54978175087145], [80.62659346032807, 20.563698816654547], [80.62096265214224, 20.569950109641987], [80.6255597258115, 20.57802166624639], [80.61735307939684, 20.585641360648676], [80.63185840895315, 20.598427857325618], [80.61230347311498, 20.600531928606184], [80.60140477521983, 20.60881806838121], [80.58076469158642, 20.60838922703309], [80.52092603662555, 20.58050224721059], [80.50441183154881, 20.583377303385223], [80.50222482459911, 20.595227863475266], [80.48102291931566, 20.61838586512529], [80.48932565043144, 20.633339065423844], [80.51999197557963, 20.656470543710835], [80.58012382447961, 20.672811074252714], [80.58765447786317, 20.684585356049354], [80.56516027597493, 20.71067207844891], [80.5600220562802, 20.726080079808824], [80.56274472504056, 20.747415164179152], [80.55168316258438, 20.763973570866312], [80.54918942767756, 20.79594436461965], [80.5618322550025, 20.824262218194725], [80.55505849153458, 20.846479840155602], [80.55613454568422, 20.88909599956972], [80.54179439654568, 20.923815151704], [80.54614851006657, 20.93474656289091], [80.46364927714197, 20.92914763878183], [80.44536849553315, 20.970529322041873], [80.44378765826245, 20.993942112973272], [80.42420041092183, 21.00876569491137], [80.45265962931586, 21.0387339336299], [80.45394674623475, 21.05296839558652], [80.43916211428689, 21.096465400979465], [80.44781772610413, 21.112327263818322], [80.4582094885148, 21.11377677024619], [80.44473376391969, 21.121888740229416], [80.4642767898938, 21.174935917800774], [80.47862703519782, 21.170592378346512], [80.50260268655033, 21.185228230906315], [80.51500367123111, 21.182938140633997], [80.52964669724915, 21.205243194303186], [80.55948721552974, 21.202015184843578], [80.58760153744853, 21.222007831316283], [80.61380251249088, 21.226478218240814], [80.62313683923448, 21.24000434461332], [80.64385636088846, 21.251386116724916], [80.65113994433123, 21.27758309418724], [80.66152675253312, 21.291228767457774], [80.6772949948013, 21.295930559191167], [80.68158574116204, 21.313483090478286], [80.6624224968389, 21.334648795298694], [80.62136721651528, 21.320270668860022], [80.611240661031, 21.32760713314672], [80.59920120423463, 21.327131477933506], [80.58937986124958, 21.333519846988803], [80.58949919974012, 21.343619156108257], [80.56672691716915, 21.345554495295577], [80.57019496662978, 21.357525086897173], [80.54318925919637, 21.37060847706639], [80.52764884495558, 21.394774314970448], [80.5084410001769, 21.390724505511475], [80.5009745969974, 21.39851391760962], [80.48419531255502, 21.395343803074002], [80.48109408025921, 21.400949918817314], [80.47647037154178, 21.394906019621175], [80.45756336177196, 21.402692502499804], [80.44863671026721, 21.372061087387102], [80.41230289512687, 21.376633782997374], [80.39611358643386, 21.408024518700138], [80.42222754257293, 21.440469245184925], [80.40913895413601, 21.467295988942922], [80.39730028068712, 21.47151307182885], [80.39219130923972, 21.48663255434865], [80.38406011502073, 21.490022697700045], [80.3764967557743, 21.523277132881415], [80.33111888201648, 21.547543372697017], [80.33932503345945, 21.554830680268736], [80.32790258451597, 21.5712668511376], [80.31773579169347, 21.577205544064128], [80.29838670120938, 21.575451662664758], [80.29448290056402, 21.592825030685336], [80.28082523119126, 21.59626987782495], [80.27030155746932, 21.615856019136015], [80.25399286806497, 21.62454088269231], [80.2215595756175, 21.62090263896267], [80.20990532629642, 21.634774834198236], [80.19278397058038, 21.635459904995727], [80.15462737311725, 21.606475316491586], [80.1197146990446, 21.609886921088506], [80.1161152413293, 21.59317675070475], [80.10111831142865, 21.589850747045006], [80.06672138531346, 21.554116335447326], [80.03289088291747, 21.55613236480072], [79.99849625648937, 21.53343687217548], [79.98870619284253, 21.536836257997567], [79.97149217590494, 21.557721186098508], [79.93589277752682, 21.55612708536854], [79.9221732914861, 21.54167177679982], [79.91844828073508, 21.524404391565422], [79.8969793368604, 21.524224260706447], [79.89121814899089, 21.51802797099437], [79.8312109646928, 21.546745691241487], [79.79208138577575, 21.58659138903569], [79.73763943354608, 21.603857435728003], [79.71816779399263, 21.593058573060674], [79.69908103133446, 21.59290093032808], [79.68955895130657, 21.580956130837734], [79.66094727174078, 21.57689579580219], [79.65196954921551, 21.555745266365882], [79.61851601943859, 21.557260186297288], [79.58138981925076, 21.541295558187056], [79.56582596347263, 21.547635244736796], [79.54062279842037, 21.542679401408243], [79.54251974026312, 21.568225927324328], [79.51204076415729, 21.583972218910848], [79.51066701101746, 21.605628647560582], [79.50367216676828, 21.614772456529867], [79.51702569173867, 21.625316785100413], [79.50416724179608, 21.640772995240813], [79.49617793378127, 21.67399874933836], [79.46071492840933, 21.687331411098594], [79.43522566521042, 21.682606625401434], [79.4222125424439, 21.691822262215453], [79.39245054141075, 21.67390017223406], [79.35233343282376, 21.67784469892475], [79.35423785853114, 21.684623598380828], [79.29060185777767, 21.692542231264124], [79.26808366637975, 21.71540997365515], [79.2311990644943, 21.72228070920034], [79.23727853355383, 21.713231953803632], [79.22075282644819, 21.692695100135293], [79.22170944149593, 21.67686449414015], [79.23107577072155, 21.67017102410548], [79.23119773049612, 21.656797534850313], [79.22399921212086, 21.655250998444266], [79.22390582416224, 21.64862521354716], [79.15501507156043, 21.66002256592267], [79.15953422626022, 21.651835463586867], [79.15389051557199, 21.646378671442616], [79.1683544543533, 21.637164418419406], [79.15145415965563, 21.640257310261607], [79.1421893813796, 21.629876340754052], [79.1381663724994, 21.634433562239447], [79.13015921855316, 21.6257395218318], [79.11203341878871, 21.623830401636905], [79.10023813576466, 21.617395887954324], [79.10691115766502, 21.604816800876343], [79.09363880805695, 21.597998600129603], [79.07648044264953, 21.60539029048929], [79.01227300467916, 21.59940367079916], [78.99841820361056, 21.619018857644775], [78.97531615938024, 21.61762273718323], [78.94328050978659, 21.591934639405526], [78.9141349866003, 21.588962691337667], [78.9137486571292, 21.57093598714125], [78.93164963822248, 21.561731810001945], [78.90657936005182, 21.553228781778024], [78.92963387262381, 21.540289099627994], [78.92722531687056, 21.522170817642788], [78.94418621012065, 21.51580552608135], [78.93671033779975, 21.48571502628249], [78.89927491682985, 21.50045437831151], [78.89087039132103, 21.48518319925119], [78.86807801703041, 21.49398821344423], [78.84109994267345, 21.486897382572238], [78.80027380281588, 21.490146911460617], [78.78021779300045, 21.47873811424818], [78.77619358576766, 21.46444200570409], [78.76689050692119, 21.48902643021183], [78.75086344384997, 21.492975469274004], [78.74571779598614, 21.47022297420044], [78.73365980604716, 21.46954027594574], [78.72816716953182, 21.462183494622888], [78.68838417494175, 21.48192060625209], [78.66696426021694, 21.47698602610724], [78.64329816651468, 21.48541297280065], [78.62835808200524, 21.47549618108921], [78.60868844567834, 21.488889359781822], [78.58543024909885, 21.486719279074872], [78.5679916165093, 21.50567298031986], [78.57015657251368, 21.514251141778747], [78.51184098147262, 21.528513709168855], [78.48702461121873, 21.505472287029328], [78.46088074926553, 21.503289013338637], [78.45138120437484, 21.49652712165902], [78.43601466804044, 21.50063526076358], [78.43227248868777, 21.51425645114851], [78.43868356724116, 21.51766373533524], [78.43002867587275, 21.527491323928157], [78.43488097349065, 21.53390748034163], [78.42449369457157, 21.544259190646013], [78.42815698387601, 21.559252609265236], [78.41933331433711, 21.57963557394865], [78.42745389136776, 21.5989460568711], [78.38691833584333, 21.614780837231148], [78.37265794632225, 21.613430889151598], [78.38185072013671, 21.591686775170544], [78.36329234922357, 21.574863289158284], [78.35565007657269, 21.572962345277606], [78.34295930436443, 21.58861632870646], [78.32680851363415, 21.57457278302485], [78.3064624917124, 21.569358634626788], [78.30299382690583, 21.583728145121956], [78.26649712654323, 21.591718882510317], [78.2602801972789, 21.579073731544653], [78.27401926120294, 21.568715293794213], [78.23971408990917, 21.562472098102692], [78.22340991723405, 21.552552857335392], [78.18197846828352, 21.55663138181001], [78.17429645057122, 21.54656269127944], [78.17134400443928, 21.524959234790302], [78.18273780251509, 21.51119138984349], [78.17457481152832, 21.507417530481916], [78.1763372917427, 21.49913486495538], [78.02979870282392, 21.421423570384576], [78.00136390692751, 21.414478377526777], [77.98466574664353, 21.403149816822193], [77.942500616651, 21.396547066819256], [77.94109557878308, 21.38570323394911], [77.88314473159515, 21.375942979526815], [77.88386833623461, 21.38415494281878], [77.85681908656106, 21.388498073317415], [77.82247277422388, 21.407235122666105], [77.80118102842889, 21.4095169957238], [77.79663910862311, 21.388952346387057], [77.75006266308738, 21.38280656419733], [77.73705408040632, 21.362179080210545], [77.70988958586497, 21.357327707819298], [77.7069002629923, 21.375440897320352], [77.69543771684782, 21.3778591121316], [77.69695377121346, 21.392594697186933], [77.69182975568003, 21.397530388881062], [77.66955857223917, 21.368815706620325], [77.66424411566211, 21.374506504183714], [77.66635076291975, 21.384069550684355], [77.65365262542446, 21.391193401700445], [77.64310016608755, 21.38686814265682], [77.60561648762058, 21.390791891186414], [77.6077178797338, 21.36464281339176], [77.58735892836016, 21.362668332692696], [77.57344807151951, 21.370892375826653], [77.5634760100944, 21.36906508492703], [77.55644940051842, 21.383755738386437], [77.56187630371119, 21.395951216578126], [77.53205747345653, 21.41906710716522], [77.51442416516512, 21.375929985036667], [77.48773873407994, 21.37430665429849], [77.48757044818619, 21.40634785075905], [77.47167571593947, 21.43593739427398], [77.47342952202148, 21.454551303822555], [77.45987117577643, 21.46642195991239], [77.44172921801496, 21.471417692418452], [77.44323181292272, 21.487157793513056], [77.42224573417448, 21.517682181054198], [77.42561451889787, 21.537783525514637], [77.4402977337451, 21.544688855979217], [77.44972121738238, 21.54136895554422], [77.45636184333863, 21.546207052226308], [77.45461279922593, 21.553739536679046], [77.5029673017631, 21.552295453585938], [77.52039799324555, 21.541435220438782], [77.57511625288359, 21.526410497388255], [77.59504023281012, 21.526623135036075], [77.61177491320367, 21.538540759525908], [77.59535536091347, 21.55939670309106], [77.5769749893773, 21.55490435234038], [77.57556451400697, 21.62076549434406], [77.54212797586369, 21.706116059469664], [77.52606222235319, 21.71152132814965], [77.5254927937693, 21.724354505809984], [77.50239732790185, 21.745978717494076], [77.47949423265922, 21.7541240111164], [77.47797786837478, 21.762808531324616], [77.48338944002059, 21.76592536506436], [77.47911897672064, 21.769965028182533], [77.4562273080484, 21.760169158346475], [77.40419828367249, 21.752396977301814], [77.34559392559007, 21.757681658929418], [77.32433901162004, 21.752639278980443], [77.28979480491734, 21.760236371587865], [77.27964153263818, 21.75410443583337], [77.28717646290083, 21.74467334619802], [77.2840226369401, 21.736713776522148], [77.29107582586869, 21.732756302218867], [77.286902302466, 21.721841112595044], [77.27156113096201, 21.72807215855001], [77.25995143628238, 21.713978636457302], [77.22693816094478, 21.716764271216114], [77.22766777441517, 21.699411252428625], [77.21039535530602, 21.68964038300406], [77.18816027605473, 21.701682762143886], [77.19147896981957, 21.720724018339023], [77.17605974639547, 21.725728143919795], [77.16514786572348, 21.71071191234352], [77.12960170959393, 21.722213239526422], [77.08656376479327, 21.71439617853011], [77.07324859069897, 21.71942737146451], [77.06235697332488, 21.70708406347781], [77.00517613864227, 21.678273643691206], [76.9288340547948, 21.624304389820384], [76.90193087028814, 21.596857492824295], [76.85445142026248, 21.613332175480615], [76.83285185326064, 21.58896512455525], [76.79518548800762, 21.593905201940988], [76.78132891276631, 21.564712622598133], [76.78925112381594, 21.53637874898503], [76.76334362927523, 21.520762017509966], [76.7728119334553, 21.50571262533573], [76.78768045188102, 21.501143872091074], [76.79555015460565, 21.489410322854066], [76.7857965257284, 21.46502279245195], [76.74428110406174, 21.43979068869357], [76.73872083159205, 21.429749024469906], [76.74020758920132, 21.41125938945319], [76.68265532540327, 21.37837004630838], [76.62149647306319, 21.332228399623503], [76.66268375902118, 21.275894225216565], [76.66141324835863, 21.240620844351213], [76.64943252611049, 21.24459486897901], [76.64157035755613, 21.23703914548483], [76.63453385393562, 21.21899662633325], [76.63694014593439, 21.202602799458244], [76.62318526088158, 21.18491704210026], [76.61355987998589, 21.19309430081765], [76.59921084561086, 21.19062141644447], [76.56687303509494, 21.1992609319626], [76.52980025322546, 21.181782725812926], [76.49307364523558, 21.193816542840324], [76.48012282063402, 21.18200812103637], [76.478169386438, 21.147218613556603], [76.46597423094161, 21.14248023130536], [76.47382280349414, 21.136797976115275], [76.45754549942916, 21.133095303493853], [76.45123089814064, 21.12030270277322], [76.45564880462311, 21.107623679915164], [76.44041768123297, 21.106101407369017], [76.43725925589798, 21.100134017108363], [76.41027833837315, 21.102150114863583], [76.41243686872832, 21.088328654595866], [76.38951328560898, 21.085674355166592], [76.37460031405146, 21.072689151512105], [76.27901079667069, 21.069906850278162], [76.27189312038283, 21.088753939158313], [76.26008316697184, 21.090415860379263], [76.19173770162895, 21.08656426316964], [76.16645205506393, 21.079004385659395], [76.17268865114471, 21.09026481564985], [76.16984243977832, 21.10360509687812], [76.1354159393273, 21.12068783242457], [76.11226670839176, 21.15530295597121], [76.11038480794015, 21.166663556623472], [76.12819909801522, 21.17560785331093], [76.13262318670343, 21.169392840389904], [76.17170472192245, 21.166479805748953], [76.17636622096725, 21.18395072616421], [76.16525499604892, 21.190343664957727], [76.17188529407434, 21.204942074111024], [76.15828282887071, 21.213286113086053], [76.16526330995686, 21.221169508570103], [76.14089248971085, 21.22757484127823], [76.1404170653299, 21.240950640869904], [76.15139650649775, 21.243480742043836], [76.15917849861634, 21.255329164899194], [76.14638116016421, 21.268183021717977], [76.14277621643748, 21.28565379714485], [76.12842118760459, 21.286592880335906], [76.12034099074425, 21.322834402810948], [76.09562065219089, 21.371118382500566], [76.04779361882898, 21.348961528869626], [76.02930945594484, 21.36485338723388], [75.98656092317589, 21.368737320096088], [75.96294676108022, 21.389605111514122], [75.9105416102982, 21.38243040619007], [75.90313576434862, 21.39156226107359], [75.88993232989591, 21.394560531364835], [75.87029178281452, 21.391117175955888], [75.86245260574155, 21.37996110094936], [75.84141581709554, 21.384470723312035], [75.83319257071274, 21.37662476536247], [75.80312325961415, 21.384494327670566], [75.75517256147529, 21.379336298813175], [75.72850759131735, 21.38863897951451], [75.7188036608349, 21.384313936038133], [75.70327554722529, 21.388029165142754], [75.67012739164443, 21.37453401087607], [75.65776192724829, 21.37872748795379], [75.62306286356706, 21.374977545328775], [75.61649856925712, 21.388091753347048], [75.60697718722017, 21.391797921671007], [75.57146850970257, 21.38169244974629], [75.57899162801755, 21.37643832521789], [75.55720587439328, 21.373174728892625], [75.55588293984742, 21.378766376150868], [75.54376229151902, 21.368481115723203], [75.52009232338298, 21.38696910044495], [75.51204887210935, 21.38204605803444], [75.44931674631326, 21.390145535961498], [75.4401346211282, 21.384195556051925], [75.42586901958185, 21.390711785848108], [75.3824258851807, 21.379280988597685], [75.35720095574572, 21.400815937137647], [75.35160887303347, 21.390574872281864], [75.31608507237807, 21.38778737899443], [75.3074965979502, 21.392356541143513], [75.29963807745425, 21.38456389772893], [75.30113993843841, 21.40988565665795], [75.29536556689379, 21.413522692256414], [75.2548807410301, 21.401838187826762], [75.23334519156866, 21.414809535592887], [75.21708450364149, 21.408560087064423], [75.1800332148635, 21.430500151073453], [75.12587049136347, 21.449208464457175], [75.10769820737633, 21.462239986523063], [75.08867054038913, 21.500728340956837], [75.08989173623749, 21.515345109377304], [75.05165974407088, 21.5664957176398], [75.02003897150972, 21.568598482142814], [75.02136454081433, 21.573607271195968], [74.9793096610566, 21.595185699095943], [74.91042645160823, 21.614522958612373], [74.90177538077475, 21.62918697379833], [74.86547127022592, 21.628506499531277], [74.86285798302951, 21.634403827527134], [74.85660923094626, 21.62648821258888], [74.83121345272401, 21.618141540306656], [74.82894144538552, 21.60974159799878], [74.80205464255636, 21.615245900667713], [74.797961847155, 21.6097656326972], [74.78295954173572, 21.610634039467737], [74.68745577124378, 21.63154401418198], [74.66417640047472, 21.652296972014756], [74.58211038279084, 21.664856539832357], [74.58061199738852, 21.683185278759204], [74.55418998109074, 21.681301015426115], [74.55759501103921, 21.70421127878836], [74.54725578749625, 21.719492133525435], [74.51299514389447, 21.718514472163417], [74.50541575421181, 21.726149872798004], [74.51415551930656, 21.76561691796191], [74.49825402364405, 21.790027149571994], [74.51013086561109, 21.82923007205198], [74.51376127118624, 21.889989274161454], [74.52291862173406, 21.899112300363466], [74.5240274670865, 21.91157135676866], [74.50934811140174, 21.920660402428204], [74.50851173495646, 21.937362784575015], [74.49525843951389, 21.946814148937047], [74.48471073136653, 21.945818907099905], [74.4887702037624, 21.95617490713574], [74.46913918421293, 21.959641370262965], [74.46975881963803, 21.967100706592312], [74.45341785556212, 21.961943304822853], [74.43942980738746, 21.976728559177257], [74.4415031729621, 21.990043988012747], [74.43237059435654, 21.99940796313089], [74.45223034923187, 22.00423341047212], [74.43877642135881, 22.020847029822377], [74.44353799631952, 22.023224861752098], [74.43172335010948, 22.030224518898144], [74.40180657025122, 22.023215538925747], [74.39522524927337, 22.033763367772472], [74.38930188405402, 22.03233702605432]]]]}, "properties": {"STNAME": "MAHARASHTRA", "STCODE11": "27", "STNAME_SH": "Maharashtra", "Shape_Length": 6270287.430436498, "Shape_Area": 347883741685.1291, "OBJECTID": 34, "State_LGD": 27}}]}